ARIANE 5 R/B            
1 28499U 04049H   26164.49280054  .00000636  00000+0  76187-4 0  9997
2 28499  98.2718 336.6032 0084740  41.3034 319.4547 14.85444692160018
CZ-2D R/B               
1 28738U 05024B   26164.77617878  .00059585  00000+0  51121-3 0  9993
2 28738  97.3480 184.0345 0003944  61.3397 298.8261 15.69205166154800
ALOS (DAICHI)           
1 28931U 06002A   26164.89142666  .00000984  00000+0  17225-3 0  9992
2 28931  98.1323 120.4691 0001578  58.4799 301.6560 14.70044396 87618
H-2A R/B                
1 28932U 06002B   26164.69284610  .00007007  00000+0  33755-3 0  9996
2 28932  98.2553 320.2061 0049573 274.5379  85.0190 15.18021573108990
RESURS-DK 1             
1 29228U 06021A   26164.86239478  .00002599  00000+0  15203-3 0  9996
2 29228  69.9339 348.1592 0006801 294.2665  65.7790 15.13205333102075
CZ-4B R/B               
1 29507U 06046C   26164.69275200  .00003937  00000+0  19611-3 0  9991
2 29507  97.5456 209.3104 0031087 295.5237  64.2782 15.17760414 74604
CZ-2C R/B               
1 31114U 07010B   26164.81929727  .00000068  00000+0  49953-4 0  9999
2 31114  98.4095 273.3350 0059230  15.8998 344.4021 14.20275532993368
COSMO-SKYMED 1          
1 31598U 07023A   26164.85997110  .00002583  00000+0  22920-3 0  9992
2 31598  97.8841 356.6882 0001060  95.6941 264.4401 14.97084981 29298
COSMOS 2428             
1 31792U 07029A   26164.81627772 -.00000131  00000+0 -44550-4 0  9997
2 31792  70.9370   1.5557 0007164 141.4459 218.7175 14.12928678977674
SL-16 R/B               
1 31793U 07029B   26164.86601034  .00000233  00000+0  14540-3 0  9992
2 31793  70.9767 330.2101 0002261 261.1745 204.4372 14.14853616978979
KORONAS-FOTON           
1 33504U 09003A   26164.84158652  .00013109  00000+0  27038-3 0  9991
2 33504  82.4281 175.7493 0011316 158.4804 201.6922 15.45665122960587
CZ-2C R/B               
1 37731U 11030B   26164.86517529  .00001220  00000+0  15885-3 0  9992
2 37731  97.8654 120.3113 0053299  38.6003  15.5015 14.81464151804331
H-2A R/B                
1 38341U 12025E   26164.87891660  .00003440  00000+0  30933-3 0  9994
2 38341  98.4822 139.7517 0043861   0.1706 359.9520 14.95701928762591
